OUFTI-1                 
1 41458U 16025C   22195.02890698  .00018963  00000+0  78947-3 0  9991
2 41458  98.1874   3.6456 0141054 174.2854 186.0027 15.15084581341607
E-ST@R-II               
1 41459U 16025D   22195.26224190  .00015429  00000+0  65845-3 0  9993
2 41459  98.1868   2.4083 0144446 177.9147 182.2898 15.13949319341552
AAUSAT 4                
1 41460U 16025E   22195.00891056  .00023559  00000+0  88582-3 0  9994
2 41460  98.1787   8.5812 0123294 154.2669 206.4777 15.20233255341970
AIST-2D (RS-48)         
1 41465U 16026B   22194.72617119  .00010848  00000+0  25607-3 0  9990
2 41465  97.0544  70.1941 0010813  45.9511 354.9681 15.41974336347587
NUSAT-1 (FRESCO)        
1 41557U 16033B   22195.23824872  .00011055  00000+0  32526-3 0  9992
2 41557  97.3899 292.9910 0008911 280.6770 163.7486 15.35213613341496
NUSAT-2 (BATATA)        
1 41558U 16033C   22195.10952725  .00010656  00000+0  29538-3 0  9993
2 41558  97.4102 298.7109 0008473 268.9025 214.2977 15.37096410341745
CARTOSAT-2C             
1 41599U 16040A   22195.15024814  .00003289  00000+0  15871-3 0  9999
2 41599  97.4855 254.5192 0015165  92.0493 351.3154 15.19288184335988
SATHYABAMASAT           
1 41600U 16040B   22195.10857253  .00018202  00000+0  56166-3 0  9991
2 41600  97.2181 246.9054 0011434  35.2814 324.9184 15.33557460336986
LAPAN-A3                
1 41603U 16040E   22195.08422403  .00001338  00000+0  63635-4 0  9998
2 41603  97.2050 230.9514 0014860  69.5364  16.1080 15.20734060336089
BIROS                   
1 41604U 16040F   22194.84736489  .00003990  00000+0  16480-3 0  9995
2 41604  97.2086 238.2608 0012841  46.8254 313.4055 15.24494478336486
SWAYAM                  
1 41607U 16040J   22195.14023705  .00014368  00000+0  45740-3 0  9994
2 41607  97.2134 245.1769 0011499  36.6377 323.5649 15.32611766336862
BEESAT-4                
1 41619U 16040W   22195.10111571  .00014979  00000+0  48992-3 0  9992
2 41619  97.2147 245.0259 0009803  33.2546 326.9310 15.31750511324803
3CAT-2                  
1 41732U 16051B   22195.25303493  .00009388  00000+0  28732-3 0  9990
2 41732  97.3811 118.3357 0010275 187.8076 330.8378 15.33999535329433
PRATHAM                 
1 41783U 16059A   22194.34210340  .00000475  00000+0  99927-4 0  9994
2 41783  97.9117 234.8581 0034875  92.2610 268.2586 14.63377565309418
ALSAT 1N                
1 41789U 16059G   22195.06128972  .00000474  00000+0  97210-4 0  9991
2 41789  97.9146 240.1815 0029569  73.8751 286.5717 14.64714441309767
LISHUI 1-01             
1 41845U 16066E   22195.20860863  .00024711  00000+0  24683-2 0  9992
2 41845  98.7385 328.4068 0212600 344.4902  15.0035 14.76084207300772
CARTOSAT-2D             
1 41948U 17008A   22194.70749847  .00002958  00000+0  14351-3 0  9996
2 41948  97.4636 254.0558 0005794 220.9904 139.0893 15.19268309299785
NAYIF-1 (EO-88)         
1 42017U 17008BX  22194.64033810  .00017292  00000+0  50538-3 0  9997
2 42017  97.2680 260.3837 0006328 140.3747 219.7960 15.35332340301098
ZHUHAI-1 02 (CAS-4B)    
1 42759U 17034B   22195.20389345  .00002107  00000+0  13320-3 0  9996
2 42759  43.0157 185.2334 0007691  94.3526  16.9551 15.12051676280402
ZHUHAI-1 01 (CAS-4A)    
1 42761U 17034D   22195.16989101  .00002353  00000+0  14690-3 0  9994
2 42761  43.0154 184.1891 0008002  97.6275   1.9070 15.12139351280409
UCLSAT                  
1 42765U 17036A   22195.07250316  .00013004  00000+0  44558-3 0  9990
2 42765  97.1950 236.9091 0008098 218.1559 141.9109 15.30292964281336
NIUSAT                  
1 42766U 17036B   22195.07416023  .00008664  00000+0  33157-3 0  9999
2 42766  97.1996 231.9478 0012146 226.4195 133.6037 15.26730467280863
CARTOSAT-2E             
1 42767U 17036C   22195.13131780  .00003109  00000+0  15060-3 0  9993
2 42767  97.4535 255.2854 0005686 287.0568 128.4966 15.19278164280418
LITUANICASAT-2          
1 42768U 17036D   22194.84934694  .00028430  00000+0  79269-3 0  9991
2 42768  97.2035 239.6517 0010071 198.6778 161.4099 15.36676161281309
AALTO-1                 
1 42775U 17036L   22194.33851575  .00007258  00000+0  28529-3 0  9997
2 42775  97.1956 231.1181 0011030 228.2800 131.7496 15.25907640280727
URSA MAIOR              
1 42776U 17036M   22194.83420380  .00008097  00000+0  31228-3 0  9991
2 42776  97.1966 232.3499 0010771 224.5519 135.4855 15.26505628280834
COMPASS 2               
1 42777U 17036N   22194.53859565  .00018469  00000+0  57508-3 0  9993
2 42777  97.2025 238.5933 0008774 204.7464 155.3360 15.33293055281145
MAX VALIER SAT          
1 42778U 17036P   22194.86004360  .00009106  00000+0  34206-3 0  9993
2 42778  97.2029 235.0567 0009384 223.5511 136.4989 15.27358591280938
PEGASUS                 
1 42784U 17036V   22194.55240865  .00011113  00000+0  39241-3 0  9993
2 42784  97.1969 235.6434 0008748 225.0613 134.9919 15.29345085281000
NUDTSAT                 
1 42787U 17036Y   22194.91201906  .00018025  00000+0  54094-3 0  9991
2 42787  97.2015 240.2882 0008101 203.6096 156.4797 15.34473045281158
SUCHAI                  
1 42788U 17036Z   22195.10556168  .00013771  00000+0  45814-3 0  9990
2 42788  97.1976 237.8835 0008271 215.2950 144.7745 15.31234266281262
SKCUBE                  
1 42789U 17036AA  22194.85412686  .00012721  00000+0  43420-3 0  9993
2 42789  97.1974 237.0765 0008254 218.1052 141.9606 15.30423451281115
VZLUSAT-1               
1 42790U 17036AB  22194.85680440  .00019786  00000+0  59631-3 0  9999
2 42790  97.2001 240.1976 0007556 205.2145 154.8731 15.34325320281293
ROBUSTA-1B              
1 42792U 17036AD  22195.06223521  .00014188  00000+0  47574-3 0  9992
2 42792  97.1972 237.8597 0007860 216.5099 143.5608 15.30976328281197
D-SAT                   
1 42794U 17036AF  22194.75872872  .00003517  00000+0  29904-3 0  9999
2 42794  97.4505 198.7803 0122738 357.9993   2.0720 14.92756299275405
NORSAT 2                
1 42828U 17042D   22194.83521308  .00001925  00000+0  19045-3 0  9994
2 42828  97.4276  49.7189 0012344 277.3890  82.5927 14.92912685272101
TECHNOSAT               
1 42829U 17042E   22195.04592162  .00001046  00000+0  10841-3 0  9994
2 42829  97.4187  47.6298 0012344 280.0983  79.8844 14.91916890272057
2017-042F               
1 42830U 17042F   22195.10093412  .00005122  00000+0  47069-3 0  9998
2 42830  97.4330  52.2338 0011391 267.4274  92.5643 14.95170347272264
FLYING LAPTOP           
1 42831U 17042G   22195.09104159  .00001493  00000+0  15292-3 0  9998
2 42831  97.4219  47.9970 0012157 279.5490  80.4373 14.91829178272062
CORVUS BC2              
1 42846U 17042X   22194.55532454  .00001379  00000+0  13780-3 0  9990
2 42846  97.4204  50.3849 0007799 270.1123  89.9204 14.92950959272173
CORVUS BC1              
1 42847U 17042Y   22194.83514338  .00001119  00000+0  11249-3 0  9993
2 42847  97.4206  50.9593 0007430 267.7620  92.2749 14.93055940272228
SIMPL                   
1 42983U 98067NF  22195.27391134  .00463846  12470-3  40317-3 0  9991
2 42983  51.6236  37.4121 0003941 272.2695  87.7869 16.12591209269243
CZ-4C R/B               
1 43012U 17072C   22194.72290838  .00000206  00000+0  53696-4 0  9994
2 43012  98.6958 231.9672 0126220 236.8837 122.0195 14.56361396247688
RADFXSAT (FOX-1B)       
1 43017U 17073E   22194.64640599  .00004720  00000+0  35336-3 0  9999
2 43017  97.6727  87.7670 0249746 101.9877 260.9447 14.81534505250998
EAGLESAT 1              
1 43018U 17073F   22194.95432988  .00007321  00000+0  52597-3 0  9993
2 43018  97.6760  89.9278 0242238  94.7140 268.1781 14.83861622251026
INS-1C                  
1 43116U 18004F   22195.12788147  .00009917  00000+0  33892-3 0  9998
2 43116  97.3759 270.9662 0006133 251.2418 108.8157 15.30468815250418
FLOCK 3P'-3             
1 43119U 18004J   22195.16396496  .00004818  00000+0  18246-3 0  9998
2 43119  97.3747 268.9141 0007307 267.1433  92.8970 15.27368258250291
FLOCK 3P'-2             
1 43120U 18004K   22194.78512685  .00006070  00000+0  23201-3 0  9996
2 43120  97.3753 268.1387 0007136 271.1919  88.8502 15.26953040250203
FLOCK 3P'-1             
1 43121U 18004L   22194.78324021  .00027654  00000+0  74841-3 0  9999
2 43121  97.3777 273.4184 0005626 233.8200 126.2524 15.37645705250483
FLOCK 3P'-4             
1 43122U 18004M   22195.16456325  .00005255  00000+0  20120-3 0  9990
2 43122  97.3761 268.6856 0007044 271.7606  88.2827 15.26959791250266
MICROMAS-2A             
1 43131U 18004W   22195.17932196  .00020926  00000+0  57392-3 0  9999
2 43131  97.3755 274.5378 0004942 239.3703 120.7055 15.37292351250681
PICSAT                  
1 43132U 18004X   22195.14747513  .00012650  00000+0  41148-3 0  9991
2 43132  97.3720 271.3875 0005836 257.5427 102.5162 15.32003595250490
CNUSAIL-1               
1 43133U 18004Y   22194.48069256  .00009640  00000+0  34468-3 0  9991
2 43133  97.3676 268.5848 0006438 268.5374  91.5129 15.28998078250271
2018-004Z               
1 43134U 18004Z   22194.45119418  .00011739  00000+0  39798-3 0  9998
2 43134  97.3705 269.9213 0006008 263.6601  96.3956 15.30684163250347
FOX-1D (AO-92)          
1 43137U 18004AC  22195.11337203  .00010050  00000+0  35043-3 0  9993
2 43137  97.3683 270.0354 0005901 263.7472  96.3097 15.29811561250418
STEP CUBE LAB           
1 43138U 18004AD  22194.48662461  .00020474  00000+0  60091-3 0  9992
2 43138  97.3757 273.1526 0005019 252.4248 107.6447 15.35174909250535
XIAOXIANG-2             
1 43155U 18008A   22195.17311814  .00006423  00000+0  33984-3 0  9994
2 43155  97.3510 252.7141 0017523  56.2063  29.2190 15.15648619247324
ZHOU ENLAI              
1 43156U 18008B   22195.19256241  .00006663  00000+0  35480-3 0  9998
2 43156  97.3560 252.6159 0014757  57.9969  29.7959 15.15447290247259
QUANTUTONG 1            
1 43158U 18008D   22195.12361284  .00005634  00000+0  30998-3 0  9993
2 43158  97.3525 250.4745 0014384  58.1423   3.4734 15.14356319247141
